{"type": "FeatureCollection", "features": [ {"type": "Feature", "properties": {"norad_id": 67070, "name": "DEAR-5", "group": "last-30-days", "lat": -39.76205522950842, "lon": -31.55322267796069, "alt_km": 529.3684962838361, "timestamp": "2025-12-23T14:49:07.970070+00:00", "meta": {"OBJECT_NAME": "DEAR-5", "OBJECT_ID": "2025-296B", "EPOCH": "2025-12-23T05:40:14.195424", "MEAN_MOTION": 15.16908903, "ECCENTRICITY": 0.00161355, "INCLINATION": 41.3551, "RA_OF_ASC_NODE": 41.6927, "ARG_OF_PERICENTER": 102.4143, "MEAN_ANOMALY": 257.8485, "EPHEMERIS_TYPE": 0, "CLASSIFICATION_TYPE": "U", "NORAD_CAT_ID": 67070, "ELEMENT_SET_NO": 999, "REV_AT_EPOCH": 154, "BSTAR": 0.00027442036, "MEAN_MOTION_DOT": 5.328e-05, "MEAN_MOTION_DDOT": 0}, "tle": {"line1": "1 67070U 25296B   25357.23627541  .00005328  00000+0  27442-3 0  9995", "line2": "2 67070  41.3551  41.6927 0016135 102.4143 257.8485 15.16908903  1542"}}, "geometry": {"type": "Point", "coordinates": [-31.55322267796069, -39.76205522950842]}}, {"type": "Feature", "properties": {"norad_id": 67071, "name": "KZ-11 R/B", "group": "last-30-days", "lat": -36.615236233150014, "lon": -16.313281222601645, "alt_km": 408.52838863869874, "timestamp": "2025-12-23T14:49:07.970082+00:00", "meta": {"OBJECT_NAME": "KZ-11 R/B", "OBJECT_ID": "2025-296C", "EPOCH": "2025-12-22T14:19:47.548704", "MEAN_MOTION": 15.40866128, "ECCENTRICITY": 0.04601667, "INCLINATION": 41.3101, "RA_OF_ASC_NODE": 47.6253, "ARG_OF_PERICENTER": 22.6091, "MEAN_ANOMALY": 339.4322, "EPHEMERIS_TYPE": 0, "CLASSIFICATION_TYPE": "U", "NORAD_CAT_ID": 67071, "ELEMENT_SET_NO": 999, "REV_AT_EPOCH": 142, "BSTAR": 0.00047260137, "MEAN_MOTION_DOT": 0.08085331, "MEAN_MOTION_DDOT": 7.163122e-06}, "tle": {"line1": "1 67071U 25296C   25356.59707811  .08085331  71631-5  47260-3 0  9997", "line2": "2 67071  41.3101  47.6253 0460166  22.6091 339.4322 15.40866128  1427"}}, "geometry": {"type": "Point", "coordinates": [-16.313281222601645, -36.615236233150014]}}, {"type": "Feature", "properties": {"norad_id": 67072, "name": "ELECTRON R/B", "group": "last-30-days", "lat": 68.63843564630065, "lon": 126.50552878664233, "alt_km": 250.22144744645084, "timestamp": "2025-12-23T14:49:07.970092+00:00", "meta": {"OBJECT_NAME": "ELECTRON R/B", "OBJECT_ID": "2025-297A", "EPOCH": "2025-12-22T20:41:30.293952", "MEAN_MOTION": 16.12797911, "ECCENTRICITY": 0.0118846, "INCLINATION": 97.4524, "RA_OF_ASC_NODE": 145.1987, "ARG_OF_PERICENTER": 196.5335, "MEAN_ANOMALY": 163.2062, "EPHEMERIS_TYPE": 0, "CLASSIFICATION_TYPE": "U", "NORAD_CAT_ID": 67072, "ELEMENT_SET_NO": 999, "REV_AT_EPOCH": 139, "BSTAR": 0.0011302, "MEAN_MOTION_DOT": 0.04330228, "MEAN_MOTION_DDOT": 2.1818e-06}, "tle": {"line1": "1 67072U 25297A   25356.86215618  .04330228  21818-5  11302-2 0  9991", "line2": "2 67072  97.4524 145.1987 0118846 196.5335 163.2062 16.12797911  1397"}}, "geometry": {"type": "Point", "coordinates": [126.50552878664233, 68.63843564630065]}}, {"type": "Feature", "properties": {"norad_id": 67073, "name": "RAISE-4", "group": "last-30-days", "lat": 16.11915567655874, "lon": -32.94897369517644, "alt_km": 549.0341711639685, "timestamp": "2025-12-23T14:49:07.970106+00:00", "meta": {"OBJECT_NAME": "RAISE-4", "OBJECT_ID": "2025-297B", "EPOCH": "2025-12-23T04:32:02.532480", "MEAN_MOTION": 15.07208545, "ECCENTRICITY": 0.00114786, "INCLINATION": 97.4854, "RA_OF_ASC_NODE": 144.4565, "ARG_OF_PERICENTER": 281.7779, "MEAN_ANOMALY": 78.2161, "EPHEMERIS_TYPE": 0, "CLASSIFICATION_TYPE": "U", "NORAD_CAT_ID": 67073, "ELEMENT_SET_NO": 999, "REV_AT_EPOCH": 136, "BSTAR": 0.00029649853, "MEAN_MOTION_DOT": 4.41e-05, "MEAN_MOTION_DDOT": 0}, "tle": {"line1": "1 67073U 25297B   25357.18891820  .00004410  00000+0  29650-3 0  9990", "line2": "2 67073  97.4854 144.4565 0011478 281.7779  78.2161 15.07208545  1365"}}, "geometry": {"type": "Point", "coordinates": [-32.94897369517644, 16.11915567655874]}}, {"type": "Feature", "properties": {"norad_id": 67074, "name": "ELECTRON KICK STAGE R/B", "group": "last-30-days", "lat": 21.343899378731393, "lon": 142.6529210029779, "alt_km": 506.1701952233643, "timestamp": "2025-12-23T14:49:07.970117+00:00", "meta": {"OBJECT_NAME": "ELECTRON KICK STAGE R/B", "OBJECT_ID": "2025-297C", "EPOCH": "2025-12-23T03:56:14.663904", "MEAN_MOTION": 15.58392058, "ECCENTRICITY": 0.01944752, "INCLINATION": 97.4823, "RA_OF_ASC_NODE": 145.1199, "ARG_OF_PERICENTER": 231.6655, "MEAN_ANOMALY": 126.6983, "EPHEMERIS_TYPE": 0, "CLASSIFICATION_TYPE": "U", "NORAD_CAT_ID": 67074, "ELEMENT_SET_NO": 999, "REV_AT_EPOCH": 140, "BSTAR": 0.001793479, "MEAN_MOTION_DOT": 0.00342466, "MEAN_MOTION_DDOT": 3.3526881e-05}, "tle": {"line1": "1 67074U 25297C   25357.16405861  .00342466  33527-4  17935-2 0  9998", "line2": "2 67074  97.4823 145.1199 0194475 231.6655 126.6983 15.58392058  1403"}}, "geometry": {"type": "Point", "coordinates": [142.6529210029779, 21.343899378731393]}}, {"type": "Feature", "properties": {"norad_id": 67075, "name": "STARLINK-36230", "group": "last-30-days", "lat": -11.21423529338118, "lon": -145.04436088656752, "alt_km": 314.246364185261, "timestamp": "2025-12-23T14:49:07.970129+00:00", "meta": {"OBJECT_NAME": "STARLINK-36230", "OBJECT_ID": "2025-298A", "EPOCH": "2025-12-23T06:00:00.999648", "MEAN_MOTION": 15.88266905, "ECCENTRICITY": 0.00042288, "INCLINATION": 69.9966, "RA_OF_ASC_NODE": 220.1575, "ARG_OF_PERICENTER": 276.4828, "MEAN_ANOMALY": 132.3054, "EPHEMERIS_TYPE": 0, "CLASSIFICATION_TYPE": "U", "NORAD_CAT_ID": 67075, "ELEMENT_SET_NO": 999, "REV_AT_EPOCH": 266, "BSTAR": -0.0073046279, "MEAN_MOTION_DOT": -0.01748336, "MEAN_MOTION_DDOT": 0}, "tle": {"line1": "1 67075U 25298A   25357.25001157 -.01748336  00000+0 -73046-2 0  9999", "line2": "2 67075  69.9966 220.1575 0004228 276.4828 132.3054 15.88266905  2669"}}, "geometry": {"type": "Point", "coordinates": [-145.04436088656752, -11.21423529338118]}}, {"type": "Feature", "properties": {"norad_id": 67076, "name": "STARLINK-36240", "group": "last-30-days", "lat": -9.394072611602956, "lon": -144.3602691382814, "alt_km": 314.27896712297934, "timestamp": "2025-12-23T14:49:07.970139+00:00", "meta": {"OBJECT_NAME": "STARLINK-36240", "OBJECT_ID": "2025-298B", "EPOCH": "2025-12-23T06:00:00.999648", "MEAN_MOTION": 15.88266022, "ECCENTRICITY": 0.00041695, "INCLINATION": 69.9966, "RA_OF_ASC_NODE": 220.155, "ARG_OF_PERICENTER": 273.8595, "MEAN_ANOMALY": 136.8715, "EPHEMERIS_TYPE": 0, "CLASSIFICATION_TYPE": "U", "NORAD_CAT_ID": 67076, "ELEMENT_SET_NO": 999, "REV_AT_EPOCH": 266, "BSTAR": -0.0073064158, "MEAN_MOTION_DOT": -0.01748555, "MEAN_MOTION_DDOT": 0}, "tle": {"line1": "1 67076U 25298B   25357.25001157 -.01748555  00000+0 -73064-2 0  9993", "line2": "2 67076  69.9966 220.1550 0004169 273.8595 136.8715 15.88266022  2662"}}, "geometry": {"type": "Point", "coordinates": [-144.3602691382814, -9.394072611602956]}}, {"type": "Feature", "properties": {"norad_id": 67077, "name": "STARLINK-36243", "group": "last-30-days", "lat": -7.2392516515347065, "lon": -143.56035652019267, "alt_km": 314.12395544669107, "timestamp": "2025-12-23T14:49:07.970149+00:00", "meta": {"OBJECT_NAME": "STARLINK-36243", "OBJECT_ID": "2025-298C", "EPOCH": "2025-12-23T06:00:00.999648", "MEAN_MOTION": 15.88255127, "ECCENTRICITY": 0.0004305, "INCLINATION": 69.9964, "RA_OF_ASC_NODE": 220.1519, "ARG_OF_PERICENTER": 274.2424, "MEAN_ANOMALY": 138.7958, "EPHEMERIS_TYPE": 0, "CLASSIFICATION_TYPE": "U", "NORAD_CAT_ID": 67077, "ELEMENT_SET_NO": 999, "REV_AT_EPOCH": 266, "BSTAR": -0.0072931119, "MEAN_MOTION_DOT": -0.0174517, "MEAN_MOTION_DDOT": 0}, "tle": {"line1": "1 67077U 25298C   25357.25001157 -.01745170  00000+0 -72931-2 0  9996", "line2": "2 67077  69.9964 220.1519 0004305 274.2424 138.7958 15.88255127  2668"}}, "geometry": {"type": "Point", "coordinates": [-143.56035652019267, -7.2392516515347065]}}, {"type": "Feature", "properties": {"norad_id": 67078, "name": "STARLINK-36236", "group": "last-30-days", "lat": -5.5653766041154515, "lon": -142.94409448380952, "alt_km": 314.0480186665354, "timestamp": "2025-12-23T14:49:07.970161+00:00", "meta": {"OBJECT_NAME": "STARLINK-36236", "OBJECT_ID": "2025-298D", "EPOCH": "2025-12-23T06:00:00.999648", "MEAN_MOTION": 15.88260631, "ECCENTRICITY": 0.00043434, "INCLINATION": 69.9965, "RA_OF_ASC_NODE": 220.1501, "ARG_OF_PERICENTER": 273.2512, "MEAN_ANOMALY": 141.5629, "EPHEMERIS_TYPE": 0, "CLASSIFICATION_TYPE": "U", "NORAD_CAT_ID": 67078, "ELEMENT_SET_NO": 999, "REV_AT_EPOCH": 266, "BSTAR": -0.0072986374, "MEAN_MOTION_DOT": -0.01746785, "MEAN_MOTION_DDOT": 0}, "tle": {"line1": "1 67078U 25298D   25357.25001157 -.01746785  00000+0 -72986-2 0  9990", "line2": "2 67078  69.9965 220.1501 0004343 273.2512 141.5629 15.88260631  2663"}}, "geometry": {"type": "Point", "coordinates": [-142.94409448380952, -5.5653766041154515]}}, {"type": "Feature", "properties": {"norad_id": 67079, "name": "STARLINK-36159", "group": "last-30-days", "lat": -3.391284460644788, "lon": -142.1493368743115, "alt_km": 313.8849891424179, "timestamp": "2025-12-23T14:49:07.970172+00:00", "meta": {"OBJECT_NAME": "STARLINK-36159", "OBJECT_ID": "2025-298E", "EPOCH": "2025-12-23T06:00:00.999648", "MEAN_MOTION": 15.88248521, "ECCENTRICITY": 0.00043823, "INCLINATION": 69.9966, "RA_OF_ASC_NODE": 220.1475, "ARG_OF_PERICENTER": 274.0376, "MEAN_ANOMALY": 143.1066, "EPHEMERIS_TYPE": 0, "CLASSIFICATION_TYPE": "U", "NORAD_CAT_ID": 67079, "ELEMENT_SET_NO": 999, "REV_AT_EPOCH": 266, "BSTAR": -0.0073026783, "MEAN_MOTION_DOT": -0.01746757, "MEAN_MOTION_DDOT": 0}, "tle": {"line1": "1 67079U 25298E   25357.25001157 -.01746757  00000+0 -73027-2 0  9997", "line2": "2 67079  69.9966 220.1475 0004382 274.0376 143.1066 15.88248521  2662"}}, "geometry": {"type": "Point", "coordinates": [-142.1493368743115, -3.391284460644788]}}]}